NORAD_CAT_ID,OBJECT_NAME,OBJECT_TYPE,EPOCH,MEAN_MOTION,ECCENTRICITY,INCLINATION,RA_OF_ASC_NODE,ARG_OF_PERICENTER,MEAN_ANOMALY,BSTAR,MEAN_MOTION_DOT,MEAN_MOTION_DDOT,TLE_LINE0,TLE_LINE1,TLE_LINE2,SEMIMAJOR_AXIS,PERIOD,APOGEE,PERIGEE,DECAYED
50805.0,STARLINK-3333,PAYLOAD,2022-11-30 10:47:06,15.08828047,0.0001961,53.2178,124.7739,46.2983,313.8172,2.0813e-05,4.3e-07,0.0,0 STARLINK-3333,1 50805U 22001C   22334.44938143  .00000043  00000-0  20813-4 0  9998,2 50805  53.2178 124.7739 0001961  46.2983 313.8172 15.08828047 50102,6917.917,95.438,541.139,538.425,0.0
50805.0,STARLINK-3333,PAYLOAD,2022-11-30 18:44:02,15.08833139,0.0001988,53.2178,123.2872,45.4673,314.6481,6.5665e-05,7.57e-06,0.0,0 STARLINK-3333,1 50805U 22001C   22334.78057930  .00000757  00000-0  65665-4 0  9997,2 50805  53.2178 123.2872 0001988  45.4673 314.6481 15.08833139 50155,6917.901,95.438,541.1419999999998,538.391,0.0
50805.0,STARLINK-3333,PAYLOAD,2022-12-01 02:40:57,15.08835875,0.0002014,53.2179,121.8004,47.6534,312.4629,8.5805e-05,1.078e-05,0.0,0 STARLINK-3333,1 50805U 22001C   22335.11177897  .00001078  00000-0  85805-4 0  9995,2 50805  53.2179 121.8004 0002014  47.6534 312.4629 15.08835875 51473,6917.893,95.438,541.151,538.365,0.0
50805.0,STARLINK-3333,PAYLOAD,2022-12-01 10:37:53,15.08844783,0.0001996,53.2187,120.3133,48.9342,311.1823,4.9844e-05,5.05e-06,0.0,0 STARLINK-3333,1 50805U 22001C   22335.44297619  .00000505  00000-0  49844-4 0  9993,2 50805  53.2187 120.3133 0001996  48.9342 311.1823 15.08844783 50253,6917.866,95.437,541.112,538.35,0.0
50805.0,STARLINK-3333,PAYLOAD,2022-12-02 08:53:17,15.08838175,0.0002172,53.2171,116.1507,48.2509,311.8668,0.00013066,1.792e-05,0.0,0 STARLINK-3333,1 50805U 22001C   22336.37033985  .00001792  00000-0  13066-3 0  9995,2 50805  53.2171 116.1507 0002172  48.2509 311.8668 15.08838175 51667,6917.886,95.438,541.254,538.248,0.0
50805.0,STARLINK-3333,PAYLOAD,2022-12-03 10:19:28,15.08836056,0.0002148,53.2174,111.3929,46.6989,313.4182,2.3297e-05,8.2e-07,0.0,0 STARLINK-3333,1 50805U 22001C   22337.43018799  .00000082  00000-0  23297-4 0  9998,2 50805  53.2174 111.3929 0002148  46.6989 313.4182 15.08836056 51825,6917.892,95.438,541.243,538.271,0.0
50805.0,STARLINK-3333,PAYLOAD,2022-12-03 13:30:14,15.08837638,0.0002183,53.2178,110.7984,47.1844,312.9332,2.6182e-05,1.28e-06,0.0,0 STARLINK-3333,1 50805U 22001C   22337.56266703  .00000128  00000-0  26182-4 0  9999,2 50805  53.2178 110.7984 0002183  47.1844 312.9332 15.08837638 50577,6917.888000000001,95.438,541.263,538.242,0.0
50805.0,STARLINK-3333,PAYLOAD,2022-12-03 18:16:23,15.08837337,0.000216,53.2186,109.9068,45.8182,314.2987,2.5976e-05,1.25e-06,0.0,0 STARLINK-3333,1 50805U 22001C   22337.76138735  .00000125  00000-0  25976-4 0  9991,2 50805  53.2186 109.9068 0002160  45.8182 314.2987 15.08837337 50605,6917.889,95.438,541.248,538.259,0.0
50805.0,STARLINK-3333,PAYLOAD,2022-12-04 02:13:19,15.08842438,0.0002127,53.2186,108.4201,45.403,314.7135,6.690899999999999e-05,7.77e-06,0.0,0 STARLINK-3333,1 50805U 22001C   22338.09258249  .00000777  00000-0  66909-4 0  9995,2 50805  53.2186 108.4201 0002127  45.4030 314.7135 15.08842438 51923,6917.873000000001,95.437,541.2090000000002,538.2669999999998,0.0
50805.0,STARLINK-3333,PAYLOAD,2022-12-04 14:56:24,15.08835186,0.0002038,53.2183,106.0407,43.9059,316.2095,6.4117e-05,7.32e-06,0.0,0 STARLINK-3333,1 50805U 22001C   22338.62250753  .00000732  00000-0  64117-4 0  9996,2 50805  53.2183 106.0407 0002038  43.9059 316.2095 15.08835186 50739,6917.895,95.438,541.17,538.35,0.0
50805.0,STARLINK-3333,PAYLOAD,2022-12-04 18:07:10,15.08835417,0.0002052,53.2185,105.4462,43.7402,316.3753,7.285399999999999e-05,8.71e-06,0.0,0 STARLINK-3333,1 50805U 22001C   22338.75498766  .00000871  00000-0  72854-4 0  9999,2 50805  53.2185 105.4462 0002052  43.7402 316.3753 15.08835417 52024,6917.894,95.438,541.179,538.34,0.0
50805.0,STARLINK-3333,PAYLOAD,2022-12-04 19:42:33,15.0883796,0.000205,53.2184,105.1488,43.4178,316.6976,9.4794e-05,1.221e-05,0.0,0 STARLINK-3333,1 50805U 22001C   22338.82122622  .00001221  00000-0  94794-4 0  9999,2 50805  53.2184 105.1488 0002050  43.4178 316.6976 15.08837960 50767,6917.887,95.438,541.17,538.3330000000002,0.0
50805.0,STARLINK-3333,PAYLOAD,2022-12-05 08:25:38,15.08845544,0.0002042,53.2184,102.7698,43.5881,316.5273,0.00018651,2.682e-05,0.0,0 STARLINK-3333,1 50805U 22001C   22339.35113924  .00002682  00000-0  18651-3 0  9992,2 50805  53.2184 102.7698 0002042  43.5881 316.5273 15.08845544 52113,6917.863,95.437,541.141,538.316,0.0
50805.0,STARLINK-3333,PAYLOAD,2022-12-05 14:47:11,15.08840587,0.000205,53.2187,101.5805,41.5683,318.5464,8.1591e-05,1.011e-05,0.0,0 STARLINK-3333,1 50805U 22001C   22339.61610542  .00001011  00000-0  81591-4 0  9998,2 50805  53.2187 101.5805 0002050  41.5683 318.5464 15.08840587 52150,6917.879,95.438,541.1619999999998,538.325,0.0
50805.0,STARLINK-3333,PAYLOAD,2022-12-05 19:33:20,15.08842487,0.0002052,53.2186,100.6885,44.2288,315.8868,0.00010291,1.35e-05,0.0,0 STARLINK-3333,1 50805U 22001C   22339.81482361  .00001350  00000-0  10291-3 0  9990,2 50805  53.2186 100.6885 0002052  44.2288 315.8868 15.08842487 50911,6917.873000000001,95.437,541.1569999999998,538.318,0.0
50805.0,STARLINK-3333,PAYLOAD,2022-12-06 08:16:25,15.08847315,0.000193,53.2196,98.3086,40.425,319.6885,0.00012472,1.698e-05,0.0,0 STARLINK-3333,1 50805U 22001C   22340.34473821  .00001698  00000-0  12472-3 0  9999,2 50805  53.2196  98.3086 0001930  40.4250 319.6885 15.08847315 50993,6917.858,95.437,541.058,538.388,0.0
50805.0,STARLINK-3333,PAYLOAD,2022-12-06 17:48:45,15.0883407,0.0002072,53.2196,96.5269,37.4659,322.6478,4.892e-05,4.9000000000000005e-06,0.0,0 STARLINK-3333,1 50805U 22001C   22340.74218889  .00000490  00000-0  48920-4 0  9991,2 50805  53.2196  96.5269 0002072  37.4659 322.6478 15.08834070 52328,6917.899,95.438,541.197,538.33,0.0
50805.0,STARLINK-3333,PAYLOAD,2022-12-06 19:24:08,15.08832056,0.0002056,53.2191,96.229,35.0745,325.0383,9.7902e-06,-1.32e-06,0.0,0 STARLINK-3333,1 50805U 22001C   22340.80843036 -.00000132  00000-0  97902-5 0  9995,2 50805  53.2191  96.2290 0002056  35.0745 325.0383 15.08832056 51060,6917.905,95.438,541.192,538.347,0.0
50805.0,STARLINK-3333,PAYLOAD,2022-12-07 17:39:32,15.08832748,0.0002088,53.219,92.0656,37.8553,322.2585,2.0604e-05,4e-07,0.0,0 STARLINK-3333,1 50805U 22001C   22341.73579309  .00000040  00000-0  20604-4 0  9998,2 50805  53.2190  92.0656 0002088  37.8553 322.2585 15.08832748 51208,6917.903,95.438,541.212,538.323,0.0
50805.0,STARLINK-3333,PAYLOAD,2022-12-08 00:01:04,15.08842764,0.0002051,53.2186,90.877,41.4533,318.6614,5.6164e-05,6.06e-06,0.0,0 STARLINK-3333,1 50805U 22001C   22342.00074635  .00000606  00000-0  56164-4 0  9999,2 50805  53.2186  90.8770 0002051  41.4533 318.6614 15.08842764 52511,6917.871999999999,95.437,541.156,538.318,0.0
50805.0,STARLINK-3333,PAYLOAD,2022-12-08 07:57:59,15.08854026,0.0001956,53.2205,89.3895,39.7314,320.3821,0.00015406,2.165e-05,0.0,0 STARLINK-3333,1 50805U 22001C   22342.33193462  .00002165  00000-0  15406-3 0  9990,2 50805  53.2205  89.3895 0001956  39.7314 320.3821 15.08854026 51292,6917.8380000000025,95.437,541.056,538.349,0.0
50805.0,STARLINK-3333,PAYLOAD,2022-12-08 14:19:31,15.08854999,0.0002088,53.2192,88.2,37.1833,322.9303,3.3747e-06,-2.35e-06,0.0,0 STARLINK-3333,1 50805U 22001C   22342.59689670 -.00000235  00000-0  33747-5 0  9996,2 50805  53.2192  88.2000 0002088  37.1833 322.9303 15.08854999 52606,6917.835,95.437,541.144,538.255,0.0
50805.0,STARLINK-3333,PAYLOAD,2022-12-08 23:51:50,15.08847576,0.0001298,53.2194,86.41799999999998,8.8973,351.2042,0.00021081,3.069e-05,0.0,0 STARLINK-3333,1 50805U 22001C   22342.99433509  .00003069  00000-0  21081-3 0  9991,2 50805  53.2194  86.4180 0001298   8.8973 351.2042 15.08847576 51392,6917.857,95.437,540.62,538.8240000000002,0.0
50805.0,STARLINK-3333,PAYLOAD,2022-12-09 15:45:43,15.0881955,9.84e-05,53.2195,83.4446,316.1078,43.9836,0.00010952,1.455e-05,0.0,0 STARLINK-3333,1 50805U 22001C   22343.65675567  .00001455  00000-0  10952-3 0  9999,2 50805  53.2195  83.4446 0000984 316.1078  43.9836 15.08819550 52766,6917.943,95.439,540.489,539.127,0.0
50805.0,STARLINK-3333,PAYLOAD,2022-12-10 10:50:11,15.08992589,0.0001379,53.2199,79.8766,318.6976,41.3912,-4.3388e-05,-9.82e-06,0.0,0 STARLINK-3333,1 50805U 22001C   22344.45151924 -.00000982  00000-0 -43388-4 0  9990,2 50805  53.2199  79.8766 0001379 318.6976  41.3912 15.08992589 52881,6917.4140000000025,95.428,540.2330000000002,538.325,0.0
50805.0,STARLINK-3333,PAYLOAD,2022-12-10 14:01:07,15.08837072,0.0002477,53.2203,79.2803,37.199,322.9173,-4.5594e-05,-1.014e-05,0.0,0 STARLINK-3333,1 50805U 22001C   22344.58411127 -.00001014  00000-0 -45594-4 0  9996,2 50805  53.2203  79.2803 0002477  37.1990 322.9173 15.08837072 51636,6917.889,95.438,541.4680000000002,538.0409999999998,0.0
50805.0,STARLINK-3333,PAYLOAD,2022-12-10 21:58:08,15.08747765,6.4e-05,53.2204,77.7967,132.6251,227.4795,-0.00057409,-9.389e-05,0.0,0 STARLINK-3333,1 50805U 22001C   22344.91537308 -.00009389  00000-0 -57409-3 0  9993,2 50805  53.2204  77.7967 0000640 132.6251 227.4795 15.08747765 52956,6918.1619999999975,95.443,540.47,539.585,0.0
50805.0,STARLINK-3333,PAYLOAD,2022-12-11 10:41:07,15.08835292,0.0001595999999999,53.22,75.4143,36.8842,323.2259,0.00012803,1.75e-05,0.0,0 STARLINK-3333,1 50805U 22001C   22345.44522853  .00001750  00000-0  12803-3 0  9992,2 50805  53.2200  75.4143 0001596  36.8842 323.2259 15.08835292 53038,6917.895,95.438,540.864,538.656,0.0
50805.0,STARLINK-3333,PAYLOAD,2022-12-11 12:16:30,15.08842909,0.000217,53.2197,75.1168,42.1611,317.9548,4.6736e-05,4.56e-06,0.0,0 STARLINK-3333,1 50805U 22001C   22345.51146914  .00000456  00000-0  46736-4 0  9995,2 50805  53.2197  75.1168 0002170  42.1611 317.9548 15.08842909 51773,6917.871,95.437,541.238,538.235,0.0
